{"type": "FeatureCollection", "features": [ {"type": "Feature", "properties": {"norad_id": 34955, "name": "COSMOS 2251 DEB", "group": "cosmos-2251-debris", "lat": -34.37825007255072, "lon": -124.52448498692623, "alt_km": 517.4759538689859, "timestamp": "2025-12-12T14:39:18.328073+00:00", "meta": {"OBJECT_NAME": "COSMOS 2251 DEB", "OBJECT_ID": "1993-036AEJ", "EPOCH": "2025-12-11T10:00:38.398176", "MEAN_MOTION": 15.00495775, "ECCENTRICITY": 0.00779991, "INCLINATION": 74.0375, "RA_OF_ASC_NODE": 249.1952, "ARG_OF_PERICENTER": 319.1032, "MEAN_ANOMALY": 40.4318, "EPHEMERIS_TYPE": 0, "CLASSIFICATION_TYPE": "U", "NORAD_CAT_ID": 34955, "ELEMENT_SET_NO": 999, "REV_AT_EPOCH": 90014, "BSTAR": 0.0014966224, "MEAN_MOTION_DOT": 0.00020131, "MEAN_MOTION_DDOT": 0}, "tle": {"line1": "1 34955U 93036AEJ 25345.41711109  .00020131  00000+0  14966-2 0  9994", "line2": "2 34955  74.0375 249.1952 0077999 319.1032  40.4318 15.00495775900143"}}, "geometry": {"type": "Point", "coordinates": [-124.52448498692623, -34.37825007255072]}}, {"type": "Feature", "properties": {"norad_id": 34962, "name": "COSMOS 2251 DEB", "group": "cosmos-2251-debris", "lat": 38.94923018816642, "lon": 0.22245630568935154, "alt_km": 746.7676570513731, "timestamp": "2025-12-12T14:39:18.328082+00:00", "meta": {"OBJECT_NAME": "COSMOS 2251 DEB", "OBJECT_ID": "1993-036AER", "EPOCH": "2025-12-10T13:52:41.169792", "MEAN_MOTION": 14.46507093, "ECCENTRICITY": 0.0018754, "INCLINATION": 74.0294, "RA_OF_ASC_NODE": 197.4019, "ARG_OF_PERICENTER": 310.673, "MEAN_ANOMALY": 49.2798, "EPHEMERIS_TYPE": 0, "CLASSIFICATION_TYPE": "U", "NORAD_CAT_ID": 34962, "ELEMENT_SET_NO": 999, "REV_AT_EPOCH": 87547, "BSTAR": 0.00061582, "MEAN_MOTION_DOT": 2.195e-05, "MEAN_MOTION_DDOT": 0}, "tle": {"line1": "1 34962U 93036AER 25344.57825428  .00002195  00000+0  61582-3 0  9995", "line2": "2 34962  74.0294 197.4019 0018754 310.6730  49.2798 14.46507093875477"}}, "geometry": {"type": "Point", "coordinates": [0.22245630568935154, 38.94923018816642]}}, {"type": "Feature", "properties": {"norad_id": 34963, "name": "COSMOS 2251 DEB", "group": "cosmos-2251-debris", "lat": 33.761701376372905, "lon": 53.92074104097782, "alt_km": 747.3153085026615, "timestamp": "2025-12-12T14:39:18.328091+00:00", "meta": {"OBJECT_NAME": "COSMOS 2251 DEB", "OBJECT_ID": "1993-036AES", "EPOCH": "2025-12-08T12:52:00.806016", "MEAN_MOTION": 14.51014391, "ECCENTRICITY": 0.0042597, "INCLINATION": 74.1718, "RA_OF_ASC_NODE": 50.5866, "ARG_OF_PERICENTER": 247.8405, "MEAN_ANOMALY": 111.8233, "EPHEMERIS_TYPE": 0, "CLASSIFICATION_TYPE": "U", "NORAD_CAT_ID": 34963, "ELEMENT_SET_NO": 999, "REV_AT_EPOCH": 86740, "BSTAR": 0.0019565, "MEAN_MOTION_DOT": 7.813e-05, "MEAN_MOTION_DDOT": 0}, "tle": {"line1": "1 34963U 93036AES 25342.53612044  .00007813  00000+0  19565-2 0  9993", "line2": "2 34963  74.1718  50.5866 0042597 247.8405 111.8233 14.51014391867405"}}, "geometry": {"type": "Point", "coordinates": [53.92074104097782, 33.761701376372905]}}, {"type": "Feature", "properties": {"norad_id": 34964, "name": "COSMOS 2251 DEB", "group": "cosmos-2251-debris", "lat": 68.71534762871453, "lon": 35.61559578632539, "alt_km": 983.4500159110448, "timestamp": "2025-12-12T14:39:18.328100+00:00", "meta": {"OBJECT_NAME": "COSMOS 2251 DEB", "OBJECT_ID": "1993-036AET", "EPOCH": "2025-12-11T09:08:17.866176", "MEAN_MOTION": 14.00597574, "ECCENTRICITY": 0.02128281, "INCLINATION": 73.9709, "RA_OF_ASC_NODE": 350.2008, "ARG_OF_PERICENTER": 208.8532, "MEAN_ANOMALY": 150.07, "EPHEMERIS_TYPE": 0, "CLASSIFICATION_TYPE": "U", "NORAD_CAT_ID": 34964, "ELEMENT_SET_NO": 999, "REV_AT_EPOCH": 84459, "BSTAR": 0.0021903006, "MEAN_MOTION_DOT": 3.941e-05, "MEAN_MOTION_DDOT": 0}, "tle": {"line1": "1 34964U 93036AET 25345.38076234  .00003941  00000+0  21903-2 0  9992", "line2": "2 34964  73.9709 350.2008 0212828 208.8532 150.0700 14.00597574844597"}}, "geometry": {"type": "Point", "coordinates": [35.61559578632539, 68.71534762871453]}}, {"type": "Feature", "properties": {"norad_id": 34965, "name": "COSMOS 2251 DEB", "group": "cosmos-2251-debris", "lat": 51.852352909454, "lon": -72.64137949469976, "alt_km": 737.0230635409298, "timestamp": "2025-12-12T14:39:18.328109+00:00", "meta": {"OBJECT_NAME": "COSMOS 2251 DEB", "OBJECT_ID": "1993-036AEU", "EPOCH": "2025-12-11T16:31:55.941024", "MEAN_MOTION": 14.48702604, "ECCENTRICITY": 0.00265275, "INCLINATION": 74.0514, "RA_OF_ASC_NODE": 130.4344, "ARG_OF_PERICENTER": 257.9061, "MEAN_ANOMALY": 101.9126, "EPHEMERIS_TYPE": 0, "CLASSIFICATION_TYPE": "U", "NORAD_CAT_ID": 34965, "ELEMENT_SET_NO": 999, "REV_AT_EPOCH": 87098, "BSTAR": 0.00059390129, "MEAN_MOTION_DOT": 2.221e-05, "MEAN_MOTION_DDOT": 0}, "tle": {"line1": "1 34965U 93036AEU 25345.68884191  .00002221  00000+0  59390-3 0  9997", "line2": "2 34965  74.0514 130.4344 0026527 257.9061 101.9126 14.48702604870989"}}, "geometry": {"type": "Point", "coordinates": [-72.64137949469976, 51.852352909454]}}, {"type": "Feature", "properties": {"norad_id": 34967, "name": "COSMOS 2251 DEB", "group": "cosmos-2251-debris", "lat": 36.19459071030857, "lon": -93.7737911845498, "alt_km": 714.5793141083996, "timestamp": "2025-12-12T14:39:18.328117+00:00", "meta": {"OBJECT_NAME": "COSMOS 2251 DEB", "OBJECT_ID": "1993-036AEW", "EPOCH": "2025-12-11T01:54:29.105856", "MEAN_MOTION": 14.44250286, "ECCENTRICITY": 0.00379354, "INCLINATION": 73.9933, "RA_OF_ASC_NODE": 256.9557, "ARG_OF_PERICENTER": 43.5887, "MEAN_ANOMALY": 316.8256, "EPHEMERIS_TYPE": 0, "CLASSIFICATION_TYPE": "U", "NORAD_CAT_ID": 34967, "ELEMENT_SET_NO": 999, "REV_AT_EPOCH": 64933, "BSTAR": 0.0010619117, "MEAN_MOTION_DOT": 3.655e-05, "MEAN_MOTION_DDOT": 0}, "tle": {"line1": "1 34967U 93036AEW 25345.07950354  .00003655  00000+0  10619-2 0  9999", "line2": "2 34967  73.9933 256.9557 0037935  43.5887 316.8256 14.44250286649338"}}, "geometry": {"type": "Point", "coordinates": [-93.7737911845498, 36.19459071030857]}}, {"type": "Feature", "properties": {"norad_id": 34968, "name": "COSMOS 2251 DEB", "group": "cosmos-2251-debris", "lat": -61.26749714173477, "lon": 98.78548283535835, "alt_km": 733.9398254164025, "timestamp": "2025-12-12T14:39:18.328126+00:00", "meta": {"OBJECT_NAME": "COSMOS 2251 DEB", "OBJECT_ID": "1993-036AEX", "EPOCH": "2025-12-12T03:39:29.952000", "MEAN_MOTION": 14.59405084, "ECCENTRICITY": 0.00865843, "INCLINATION": 74.0388, "RA_OF_ASC_NODE": 248.1884, "ARG_OF_PERICENTER": 8.6879, "MEAN_ANOMALY": 351.576, "EPHEMERIS_TYPE": 0, "CLASSIFICATION_TYPE": "U", "NORAD_CAT_ID": 34968, "ELEMENT_SET_NO": 999, "REV_AT_EPOCH": 88469, "BSTAR": 0.00026640789, "MEAN_MOTION_DOT": 1.298e-05, "MEAN_MOTION_DDOT": 0}, "tle": {"line1": "1 34968U 93036AEX 25346.15243000  .00001298  00000+0  26641-3 0  9997", "line2": "2 34968  74.0388 248.1884 0086584   8.6879 351.5760 14.59405084884698"}}, "geometry": {"type": "Point", "coordinates": [98.78548283535835, -61.26749714173477]}}, {"type": "Feature", "properties": {"norad_id": 34969, "name": "COSMOS 2251 DEB", "group": "cosmos-2251-debris", "lat": -10.080372169713264, "lon": 20.460792505014886, "alt_km": 839.5277348379286, "timestamp": "2025-12-12T14:39:18.328155+00:00", "meta": {"OBJECT_NAME": "COSMOS 2251 DEB", "OBJECT_ID": "1993-036AEY", "EPOCH": "2025-12-09T11:16:06.111552", "MEAN_MOTION": 14.32248944, "ECCENTRICITY": 0.00738203, "INCLINATION": 74.0146, "RA_OF_ASC_NODE": 29.119, "ARG_OF_PERICENTER": 163.1468, "MEAN_ANOMALY": 197.2162, "EPHEMERIS_TYPE": 0, "CLASSIFICATION_TYPE": "U", "NORAD_CAT_ID": 34969, "ELEMENT_SET_NO": 999, "REV_AT_EPOCH": 65090, "BSTAR": 0.00049233942, "MEAN_MOTION_DOT": 1.343e-05, "MEAN_MOTION_DDOT": 0}, "tle": {"line1": "1 34969U 93036AEY 25343.46951518  .00001343  00000+0  49234-3 0  9993", "line2": "2 34969  74.0146  29.1190 0073820 163.1468 197.2162 14.32248944650905"}}, "geometry": {"type": "Point", "coordinates": [20.460792505014886, -10.080372169713264]}}, {"type": "Feature", "properties": {"norad_id": 34971, "name": "COSMOS 2251 DEB", "group": "cosmos-2251-debris", "lat": -46.70532819444963, "lon": -92.50121571947042, "alt_km": 760.0421628860895, "timestamp": "2025-12-12T14:39:18.328164+00:00", "meta": {"OBJECT_NAME": "COSMOS 2251 DEB", "OBJECT_ID": "1993-036AFA", "EPOCH": "2025-12-11T13:03:07.178112", "MEAN_MOTION": 14.55631176, "ECCENTRICITY": 0.00696698, "INCLINATION": 73.9786, "RA_OF_ASC_NODE": 287.2832, "ARG_OF_PERICENTER": 153.3092, "MEAN_ANOMALY": 329.2446, "EPHEMERIS_TYPE": 0, "CLASSIFICATION_TYPE": "U", "NORAD_CAT_ID": 34971, "ELEMENT_SET_NO": 999, "REV_AT_EPOCH": 66155, "BSTAR": 0.00028423964, "MEAN_MOTION_DOT": 1.251e-05, "MEAN_MOTION_DDOT": 0}, "tle": {"line1": "1 34971U 93036AFA 25345.54383308  .00001251  00000+0  28424-3 0  9999", "line2": "2 34971  73.9786 287.2832 0069669 153.3092 329.2446 14.55631176661559"}}, "geometry": {"type": "Point", "coordinates": [-92.50121571947042, -46.70532819444963]}}, {"type": "Feature", "properties": {"norad_id": 34972, "name": "COSMOS 2251 DEB", "group": "cosmos-2251-debris", "lat": -11.864840761286112, "lon": -126.43050870679915, "alt_km": 633.2317605613262, "timestamp": "2025-12-12T14:39:18.328173+00:00", "meta": {"OBJECT_NAME": "COSMOS 2251 DEB", "OBJECT_ID": "1993-036AFB", "EPOCH": "2025-12-11T15:39:21.883968", "MEAN_MOTION": 14.72853144, "ECCENTRICITY": 0.00337724, "INCLINATION": 73.9883, "RA_OF_ASC_NODE": 51.9818, "ARG_OF_PERICENTER": 211.2794, "MEAN_ANOMALY": 302.0025, "EPHEMERIS_TYPE": 0, "CLASSIFICATION_TYPE": "U", "NORAD_CAT_ID": 34972, "ELEMENT_SET_NO": 999, "REV_AT_EPOCH": 87634, "BSTAR": 0.0021673296, "MEAN_MOTION_DOT": 0.00013997, "MEAN_MOTION_DDOT": 0}, "tle": {"line1": "1 34972U 93036AFB 25345.65233662  .00013997  00000+0  21673-2 0  9997", "line2": "2 34972  73.9883  51.9818 0033772 211.2794 302.0025 14.72853144876344"}}, "geometry": {"type": "Point", "coordinates": [-126.43050870679915, -11.864840761286112]}}]}